{
    "links": {
        "self": "http://www.neowsapp.com/rest/v1/neo/3892687?api_key=iIulBulltgU6a56xZRHN4H3l9WmuAYTsLGpBGhQ2"
    },
    "id": "3892687",
    "neo_reference_id": "3892687",
    "name": "(2019 VC3)",
    "designation": "2019 VC3",
    "nasa_jpl_url": "http://ssd.jpl.nasa.gov/sbdb.cgi?sstr=3892687",
    "absolute_magnitude_h": 26.5,
    "estimated_diameter": {
        "kilometers": {
            "estimated_diameter_min": 0.0133215567,
            "estimated_diameter_max": 0.0297879063
        },
        "meters": {
            "estimated_diameter_min": 13.3215566698,
            "estimated_diameter_max": 29.7879062798
        },
        "miles": {
            "estimated_diameter_min": 0.008277629,
            "estimated_diameter_max": 0.0185093411
        },
        "feet": {
            "estimated_diameter_min": 43.7058959846,
            "estimated_diameter_max": 97.7293544391
        }
    },
    "is_potentially_hazardous_asteroid": false,
    "close_approach_data": [
        {
            "close_approach_date": "1931-04-27",
            "close_approach_date_full": "1931-Apr-27 09:59",
            "epoch_date_close_approach": -1220709660000,
            "relative_velocity": {
                "kilometers_per_second": "25.443605215",
                "kilometers_per_hour": "91596.9787738826",
                "miles_per_hour": "56914.8005053606"
            },
            "miss_distance": {
                "astronomical": "0.2882776364",
                "lunar": "112.1400005596",
                "kilometers": "43125720.374074468",
                "miles": "26797080.0433369384"
            },
            "orbiting_body": "Earth"
        },
        {
            "close_approach_date": "2019-10-27",
            "close_approach_date_full": "2019-Oct-27 18:23",
            "epoch_date_close_approach": 1572200580000,
            "relative_velocity": {
                "kilometers_per_second": "17.0782167154",
                "kilometers_per_hour": "61481.5801753432",
                "miles_per_hour": "38202.2629706181"
            },
            "miss_distance": {
                "astronomical": "0.0220529894",
                "lunar": "8.5786128766",
                "kilometers": "3299080.241372578",
                "miles": "2049953.4043864564"
            },
            "orbiting_body": "Earth"
        },
        {
            "close_approach_date": "2075-11-11",
            "close_approach_date_full": "2075-Nov-11 08:00",
            "epoch_date_close_approach": 3340684800000,
            "relative_velocity": {
                "kilometers_per_second": "24.9167871653",
                "kilometers_per_hour": "89700.4337949612",
                "miles_per_hour": "55736.3612099858"
            },
            "miss_distance": {
                "astronomical": "0.266206101",
                "lunar": "103.554173289",
                "kilometers": "39823865.69060487",
                "miles": "24745402.680572406"
            },
            "orbiting_body": "Earth"
        }
    ],
    "orbital_data": {
        "orbit_id": "2",
        "orbit_determination_date": "2019-11-06 14:23:29",
        "first_observation_date": "2019-11-04",
        "last_observation_date": "2019-11-06",
        "data_arc_in_days": 2,
        "observations_used": 21,
        "orbit_uncertainty": "8",
        "minimum_orbit_intersection": ".00845064",
        "jupiter_tisserand_invariant": "4.035",
        "epoch_osculation": "2458793.5",
        "eccentricity": ".582697334092894",
        "semi_major_axis": "1.668381024550857",
        "inclination": "5.176708743225857",
        "ascending_node_longitude": "227.4933892807055",
        "orbital_period": "787.1206196489865",
        "perihelion_distance": ".6962198492939012",
        "perihelion_argument": "86.44134430126142",
        "aphelion_distance": "2.640542199807812",
        "perihelion_time": "2458735.742062508144",
        "mean_anomaly": "26.41635472126325",
        "mean_motion": ".4573631931539802",
        "equinox": "J2000",
        "orbit_class": {
            "orbit_class_type": "APO",
            "orbit_class_description": "Near-Earth asteroid orbits which cross the Earth’s orbit similar to that of 1862 Apollo",
            "orbit_class_range": "a (semi-major axis) > 1.0 AU; q (perihelion) < 1.017 AU"
        }
    },
    "is_sentry_object": false
}